start=new Date('2023-02-03T00:00:00.000Z').valueOf();
sats=[{"ELEMENT_SET_NO":"999","PERIOD":"95.438","APOAPSIS":"540.436","MEAN_MOTION":"15.08838628","EPHEMERIS_TYPE":"0","NORAD_CAT_ID":"53153","BSTAR":"-0.00008350400000","GP_ID":"224250382","EPOCH":"2023-02-02T21:07:35.975136","ARG_OF_PERICENTER":"91.3865","OBJECT_ID":"2022-083X","LAUNCH_DATE":"2022-07-17","RA_OF_ASC_NODE":"200.5169","TLE_LINE2":"2 53153  53.2167 200.5169 0000992  91.3865 268.7240 15.08838628 31279","SEMIMAJOR_AXIS":"6917.885","OBJECT_TYPE":"PAYLOAD","MEAN_MOTION_DOT":"-0.00001616","TLE_LINE1":"1 53153U 22083X   23033.88027749 -.00001616  00000-0 -83504-4 0  9998","MEAN_ANOMALY":"268.7240","DECAY_DATE":null,"OBJECT_NAME":"STARLINK-4098","CLASSIFICATION_TYPE":"U","PERIAPSIS":"539.063","ECCENTRICITY":"0.00009920","REV_AT_EPOCH":"3127","MEAN_ELEMENT_THEORY":"SGP4","INCLINATION":"53.2167","TIME_SYSTEM":"UTC","CENTER_NAME":"EARTH","RCS_SIZE":"LARGE","COUNTRY_CODE":"US","REF_FRAME":"TEME","MEAN_MOTION_DDOT":"0.0000000000000","SITE":"AFETR","FILE":"3768645"},{"OBJECT_NAME":"STARLINK-4077","TLE_LINE1":"1 53154U 22083Y   23033.62268842 -.00000877  00000-0 -36992-4 0  9999","MEAN_ANOMALY":"274.8306","DECAY_DATE":null,"CLASSIFICATION_TYPE":"U","MEAN_MOTION_DOT":"-0.00000877","OBJECT_TYPE":"PAYLOAD","MEAN_ELEMENT_THEORY":"SGP4","ECCENTRICITY":"0.00011450","REV_AT_EPOCH":"3123","PERIAPSIS":"538.934","TIME_SYSTEM":"UTC","CENTER_NAME":"EARTH","RCS_SIZE":"LARGE","INCLINATION":"53.2161","SITE":"AFETR","FILE":"3768645","MEAN_MOTION_DDOT":"0.0000000000000","REF_FRAME":"TEME","COUNTRY_CODE":"US","PERIOD":"95.437","ELEMENT_SET_NO":"999","BSTAR":"-0.00003699200000","GP_ID":"224250384","EPHEMERIS_TYPE":"0","APOAPSIS":"540.518","MEAN_MOTION":"15.08846446","NORAD_CAT_ID":"53154","OBJECT_ID":"2022-083Y","EPOCH":"2023-02-02T14:56:40.279488","ARG_OF_PERICENTER":"85.2816","RA_OF_ASC_NODE":"201.6767","SEMIMAJOR_AXIS":"6917.861","TLE_LINE2":"2 53154  53.2161 201.6767 0001145  85.2816 274.8306 15.08846446 31233","LAUNCH_DATE":"2022-07-17"},{"RA_OF_ASC_NODE":"202.3363","TLE_LINE2":"2 53155  53.2168 202.3363 0001587  99.1761 260.9411 15.08843894 31220","SEMIMAJOR_AXIS":"6917.868","LAUNCH_DATE":"2022-07-17","OBJECT_ID":"2022-083Z","EPOCH":"2023-02-02T11:24:41.719104","ARG_OF_PERICENTER":"99.1761","BSTAR":"0.00004499300000","GP_ID":"224242570","EPHEMERIS_TYPE":"0","APOAPSIS":"540.831","MEAN_MOTION":"15.08843894","NORAD_CAT_ID":"53155","ELEMENT_SET_NO":"999","PERIOD":"95.437","SITE":"AFETR","FILE":"3768366","MEAN_MOTION_DDOT":"0.0000000000000","REF_FRAME":"TEME","COUNTRY_CODE":"US","CENTER_NAME":"EARTH","TIME_SYSTEM":"UTC","RCS_SIZE":"LARGE","INCLINATION":"53.2168","MEAN_ELEMENT_THEORY":"SGP4","ECCENTRICITY":"0.00015870","REV_AT_EPOCH":"3122","PERIAPSIS":"538.636","OBJECT_NAME":"STARLINK-4088","TLE_LINE1":"1 53155U 22083Z   23033.47548286  .00000428  00000-0  44993-4 0  9996","DECAY_DATE":null,"MEAN_ANOMALY":"260.9411","CLASSIFICATION_TYPE":"U","MEAN_MOTION_DOT":"0.00000428","OBJECT_TYPE":"PAYLOAD"},{"MEAN_ELEMENT_THEORY":"SGP4","REV_AT_EPOCH":"3127","ECCENTRICITY":"0.00011320","PERIAPSIS":"538.961","OBJECT_NAME":"STARLINK-4087","TLE_LINE1":"1 53156U 22083AA  23033.87387613  .00000133  00000-0  26469-4 0  9997","DECAY_DATE":null,"MEAN_ANOMALY":"269.6852","CLASSIFICATION_TYPE":"U","MEAN_MOTION_DOT":"0.00000133","OBJECT_TYPE":"PAYLOAD","SITE":"AFETR","FILE":"3768645","MEAN_MOTION_DDOT":"0.0000000000000","REF_FRAME":"TEME","COUNTRY_CODE":"US","TIME_SYSTEM":"UTC","CENTER_NAME":"EARTH","RCS_SIZE":"LARGE","INCLINATION":"53.2168","BSTAR":"0.00002646900000","GP_ID":"224250380","MEAN_MOTION":"15.08840479","APOAPSIS":"540.527","EPHEMERIS_TYPE":"0","NORAD_CAT_ID":"53156","PERIOD":"95.438","ELEMENT_SET_NO":"999","RA_OF_ASC_NODE":"200.5477","TLE_LINE2":"2 53156  53.2168 200.5477 0001132  90.4270 269.6852 15.08840479 31278","SEMIMAJOR_AXIS":"6917.879","LAUNCH_DATE":"2022-07-17","OBJECT_ID":"2022-083AA","EPOCH":"2023-02-02T20:58:22.897632","ARG_OF_PERICENTER":"90.4270"},{"LAUNCH_DATE":"2022-07-17","SEMIMAJOR_AXIS":"6917.878","TLE_LINE2":"2 53157  53.2153 202.3704 0001142  89.8044 270.3079 15.08840670 30584","RA_OF_ASC_NODE":"202.3704","ARG_OF_PERICENTER":"89.8044","EPOCH":"2023-02-02T11:14:05.770176","OBJECT_ID":"2022-083AB","NORAD_CAT_ID":"53157","MEAN_MOTION":"15.08840670","APOAPSIS":"540.533","EPHEMERIS_TYPE":"0","GP_ID":"224243563","BSTAR":"0.00002821400000","ELEMENT_SET_NO":"999","PERIOD":"95.438","MEAN_MOTION_DDOT":"0.0000000000000","REF_FRAME":"TEME","COUNTRY_CODE":"US","FILE":"3768366","SITE":"AFETR","INCLINATION":"53.2153","RCS_SIZE":"LARGE","TIME_SYSTEM":"UTC","CENTER_NAME":"EARTH","ECCENTRICITY":"0.00011420","REV_AT_EPOCH":"3058","PERIAPSIS":"538.953","MEAN_ELEMENT_THEORY":"SGP4","MEAN_MOTION_DOT":"0.00000161","OBJECT_TYPE":"PAYLOAD","CLASSIFICATION_TYPE":"U","OBJECT_NAME":"STARLINK-4093","TLE_LINE1":"1 53157U 22083AB  23033.46812234  .00000161  00000-0  28214-4 0  9996","MEAN_ANOMALY":"270.3079","DECAY_DATE":null},{"FILE":"3768667","SITE":"AFETR","REF_FRAME":"TEME","MEAN_MOTION_DDOT":"0.0000000000000","COUNTRY_CODE":"US","RCS_SIZE":"LARGE","TIME_SYSTEM":"UTC","CENTER_NAME":"EARTH","INCLINATION":"53.2152","MEAN_ELEMENT_THEORY":"SGP4","REV_AT_EPOCH":"3126","ECCENTRICITY":"0.00014820","PERIAPSIS":"538.726","CLASSIFICATION_TYPE":"U","OBJECT_NAME":"STARLINK-4054","TLE_LINE1":"1 53158U 22083AC  23033.81036212 -.00000063  00000-0  14120-4 0  9993","DECAY_DATE":null,"MEAN_ANOMALY":"278.7507","MEAN_MOTION_DOT":"-0.00000063","OBJECT_TYPE":"PAYLOAD","TLE_LINE2":"2 53158  53.2152 200.8325 0001482  81.3653 278.7507 15.08838052 31261","SEMIMAJOR_AXIS":"6917.886","RA_OF_ASC_NODE":"200.8325","LAUNCH_DATE":"2022-07-17","OBJECT_ID":"2022-083AC","ARG_OF_PERICENTER":"81.3653","EPOCH":"2023-02-02T19:26:55.287168","GP_ID":"224250748","BSTAR":"0.00001412000000","NORAD_CAT_ID":"53158","APOAPSIS":"540.777","EPHEMERIS_TYPE":"0","MEAN_MOTION":"15.08838052","ELEMENT_SET_NO":"999","PERIOD":"95.438"},{"BSTAR":"0.00006545600000","GP_ID":"224252084","EPHEMERIS_TYPE":"0","APOAPSIS":"540.661","MEAN_MOTION":"15.08842036","NORAD_CAT_ID":"53159","PERIOD":"95.437","ELEMENT_SET_NO":"999","RA_OF_ASC_NODE":"200.6136","TLE_LINE2":"2 53159  53.2168 200.6136 0001332  83.8504 276.2640 15.08842036 31272","SEMIMAJOR_AXIS":"6917.874","LAUNCH_DATE":"2022-07-17","OBJECT_ID":"2022-083AD","EPOCH":"2023-02-02T20:35:48.613056","ARG_OF_PERICENTER":"83.8504","MEAN_ELEMENT_THEORY":"SGP4","PERIAPSIS":"538.818","REV_AT_EPOCH":"3127","ECCENTRICITY":"0.00013320","TLE_LINE1":"1 53159U 22083AD  23033.85820154  .00000754  00000-0  65456-4 0  9998","MEAN_ANOMALY":"276.2640","DECAY_DATE":null,"OBJECT_NAME":"STARLINK-4111","CLASSIFICATION_TYPE":"U","OBJECT_TYPE":"PAYLOAD","MEAN_MOTION_DOT":"0.00000754","SITE":"AFETR","FILE":"3768753","COUNTRY_CODE":"US","REF_FRAME":"TEME","MEAN_MOTION_DDOT":"0.0000000000000","TIME_SYSTEM":"UTC","CENTER_NAME":"EARTH","RCS_SIZE":"LARGE","INCLINATION":"53.2168"},{"LAUNCH_DATE":"2022-07-17","RA_OF_ASC_NODE":"202.3495","TLE_LINE2":"2 53160  53.2172 202.3495 0001356  80.5835 279.5310 15.08841037 30586","SEMIMAJOR_AXIS":"6917.877","EPOCH":"2023-02-02T11:19:23.539008","ARG_OF_PERICENTER":"80.5835","OBJECT_ID":"2022-083AE","MEAN_MOTION":"15.08841037","APOAPSIS":"540.680","EPHEMERIS_TYPE":"0","NORAD_CAT_ID":"53160","BSTAR":"0.00004058600000","GP_ID":"224242810","ELEMENT_SET_NO":"999","PERIOD":"95.437","COUNTRY_CODE":"US","MEAN_MOTION_DDOT":"0.0000000000000","REF_FRAME":"TEME","SITE":"AFETR","FILE":"3768366","INCLINATION":"53.2172","CENTER_NAME":"EARTH","TIME_SYSTEM":"UTC","RCS_SIZE":"LARGE","PERIAPSIS":"538.804","REV_AT_EPOCH":"3058","ECCENTRICITY":"0.00013560","MEAN_ELEMENT_THEORY":"SGP4","OBJECT_TYPE":"PAYLOAD","MEAN_MOTION_DOT":"0.00000358","TLE_LINE1":"1 53160U 22083AE  23033.47180022  .00000358  00000-0  40586-4 0  9998","MEAN_ANOMALY":"279.5310","DECAY_DATE":null,"OBJECT_NAME":"STARLINK-4096","CLASSIFICATION_TYPE":"U"},{"MEAN_ELEMENT_THEORY":"SGP4","PERIAPSIS":"538.952","ECCENTRICITY":"0.00011330","REV_AT_EPOCH":"3127","TLE_LINE1":"1 53161U 22083AF  23033.84715991  .00000798  00000-0  68231-4 0  9994","DECAY_DATE":null,"MEAN_ANOMALY":"270.7412","OBJECT_NAME":"STARLINK-4055","CLASSIFICATION_TYPE":"U","OBJECT_TYPE":"PAYLOAD","MEAN_MOTION_DOT":"0.00000798","SITE":"AFETR","FILE":"3768675","COUNTRY_CODE":"US","REF_FRAME":"TEME","MEAN_MOTION_DDOT":"0.0000000000000","TIME_SYSTEM":"UTC","CENTER_NAME":"EARTH","RCS_SIZE":"LARGE","INCLINATION":"53.2138","BSTAR":"0.00006823100000","GP_ID":"224250771","EPHEMERIS_TYPE":"0","APOAPSIS":"540.519","MEAN_MOTION":"15.08843253","NORAD_CAT_ID":"53161","ELEMENT_SET_NO":"999","PERIOD":"95.437","RA_OF_ASC_NODE":"200.6763","SEMIMAJOR_AXIS":"6917.870","TLE_LINE2":"2 53161  53.2138 200.6763 0001133  89.3710 270.7412 15.08843253 31275","LAUNCH_DATE":"2022-07-17","OBJECT_ID":"2022-083AF","EPOCH":"2023-02-02T20:19:54.616224","ARG_OF_PERICENTER":"89.3710"},{"LAUNCH_DATE":"2022-07-17","RA_OF_ASC_NODE":"202.3875","TLE_LINE2":"2 53162  53.2171 202.3875 0001292  85.7205 274.3935 15.08836881 31214","SEMIMAJOR_AXIS":"6917.890","EPOCH":"2023-02-02T11:08:48.055776","ARG_OF_PERICENTER":"85.7205","OBJECT_ID":"2022-083AG","APOAPSIS":"540.649","EPHEMERIS_TYPE":"0","MEAN_MOTION":"15.08836881","NORAD_CAT_ID":"53162","BSTAR":"0.00001769800000","GP_ID":"224250770","PERIOD":"95.438","ELEMENT_SET_NO":"999","COUNTRY_CODE":"US","MEAN_MOTION_DDOT":"0.0000000000000","REF_FRAME":"TEME","SITE":"AFETR","FILE":"3768675","INCLINATION":"53.2171","TIME_SYSTEM":"UTC","CENTER_NAME":"EARTH","RCS_SIZE":"LARGE","PERIAPSIS":"538.861","ECCENTRICITY":"0.00012920","REV_AT_EPOCH":"3121","MEAN_ELEMENT_THEORY":"SGP4","OBJECT_TYPE":"PAYLOAD","MEAN_MOTION_DOT":"-0.00000006","DECAY_DATE":null,"TLE_LINE1":"1 53162U 22083AG  23033.46444509 -.00000006  00000-0  17698-4 0  9991","MEAN_ANOMALY":"274.3935","OBJECT_NAME":"STARLINK-4114","CLASSIFICATION_TYPE":"U"}];
